QIANFAN-17              
1 60395U 24140S   25303.92445672  .00000074  00000+0  95358-4 0  9990
2 60395  88.9742 303.8699 0014133 337.1138  22.9381 13.50970897 62359
QIANFAN-18              
1 60396U 24140T   25303.90385858  .00000061  00000+0  75559-4 0  9995
2 60396  88.9734 303.4087 0012941 318.9100  41.1075 13.50970987 61744
QIANFAN-19              
1 61552U 24185A   25303.85006017  .00000818  00000+0  42145-3 0  9994
2 61552  88.9789  82.8492 0009011  85.8301 274.3916 14.14225893 63605
QIANFAN-20              
1 61553U 24185B   25303.92978147  .00000575  00000+0  32556-3 0  9990
2 61553  88.9786  83.1208 0007776 114.7750 245.4244 14.08772918 63463
QIANFAN-21              
1 61554U 24185C   25303.91326596  .00001057  00000+0  46734-3 0  9994
2 61554  88.9705  81.9889 0012176 135.6897 224.5271 14.22514630 63885
QIANFAN-22              
1 61555U 24185D   25303.91526433  .00000266  00000+0  21877-3 0  9999
2 61555  88.9770  83.9320 0008302 119.8929 240.3068 13.86279215 63006
QIANFAN-23              
1 61556U 24185E   25303.88591102  .00000831  00000+0  41233-3 0  9997
2 61556  88.9782  82.6750 0009919  94.8602 265.3719 14.16224464 63682
QIANFAN-24              
1 61557U 24185F   25303.88185188  .00000846  00000+0  36432-3 0  9992
2 61557  88.9763  82.1505 0011550  81.3745 278.8755 14.23719880 63923
